#dP2020 11 25  0  0  0.00000000      96 __u+U ITR00 FIT  IAC
## 2133 259200.00000000   900.00000000 59178 0.0000000000000
+  116   C06C07C08C09C10C11C12C13C14C16C19C20C21C22C23C24C25
+        C26C27C28C29C30C32C33C34C35C36C37C38C39C40C43C44C45
+        C46E01E02E03E04E05E07E08E09E11E12E13E14E15E18E19E21
+        E24E25E26E27E30E31E33E36G01G02G03G04G05G06G07G08G09
+        G10G11G12G13G14G15G16G17G18G19G20G21G22G23G24G25G26
+        G27G28G29G30G31G32J01J02J03R01R02R03R04R05R07R08R09
+        R12R13R14R15R16R17R18R19R20R21R22R23R24R25  0  0  0
++         8  8  8  7  7  7  8  8  7  8  6  7  8  8  7  8  8
++         8  6  7  7  7  6  7  6  8  8  7 11 11 10 10 10  6
++         8  6  6  6  7  6  7  7  7  6  7  6  7  6  6  5  7
++         7  6  5  7  6  7  6  5  5  6  5  6  6  6  6  5  6
++         5  8  7  5  6  5  6  6  6  5  6  6  6  6  6  7  6
++         5  5  6  6  5  7  8  7  7  7  7  6  6  6  7  6  6
++         6  7  5  6  7  6  7  6  8  7  6  9  7  7  0  0  0
%c M  cc GPS ccc cccc cccc cccc cccc ccccc ccccc ccccc ccccc
%c cc cc ccc ccc cccc cccc cccc cccc ccccc ccccc ccccc ccccc
%f  0.0000000  0.000000000  0.00000000000  0.000000000000000
%f  0.0000000  0.000000000  0.00000000000  0.000000000000000
%i    0    0    0    0      0      0      0      0         0
%i    0    0    0    0      0      0      0      0         0
/* INFORMATION & ANALYSIS CENTER (IAC)      ULTRA-RAPID DATA
/* S/V CLOCKS ARE ALIGNED TO GNSS TIME                      
/* G:C1WC2W R:C1PC2P E:C1XC5X C:C2IC6I J:C1CC2S             
/* PCV:IGS14_2132 OL/AL:FES2004  NONE     YN ORB:CoN CLK:CoN
*  2020 11 25  5 30  0.00000000
PC06 -10559.759215  22814.194201  34295.439566     11.364915
PC07 -24736.078412  30090.698391 -16510.760564    -70.648273
PC08 -10765.646808  37658.917019 -15015.972786   -730.034477
PC09   5786.444237  30360.704955  29112.861743    915.241107
PC10 -10275.595940  31059.226466 -26598.194249   -135.253180
PC11  21166.186453  17719.552663   3955.565324   -774.590293
PC12  10032.918921  22297.088406 -13380.010839    628.909500
PC13  -2485.658586  41884.635053  -1871.176586    759.375591
PC14  19855.663923   7416.428017  18142.769963    315.018927
PC16  -7832.131229  23537.244026  34192.252302   -616.885919
PC19 -25615.347046   -516.710974 -11058.278844    630.595434
PC20 -12286.732080 -12224.872301 -21869.604806   -902.745596
PC21  -9051.892423  17144.685071  20084.617984   -733.138850
PC22 -24488.106329  11750.149149   6451.105765   -799.212699
PC23  15951.132364 -16544.575898 -15828.200673   -906.376559
PC24   6063.750579  22037.874867 -15991.794068   -723.651692
PC25  15925.891556   2889.511236 -22735.281827   -838.968963
PC26  -5744.522765  27275.578256   -827.633617    917.453926
PC27   -765.620862 -19879.163580  19551.324605    438.580025
PC28  15530.871686  -6263.718241  22327.480054   -141.793562
PC29 -23084.336056 -10104.170332 -11995.418169    315.932016
PC30 -17071.756233 -21300.774554   5753.684609    408.574077
PC32   8942.507421 -17214.926581 -20054.022640   -884.843865
PC33  25572.083327    481.540016  11145.019906   -847.921180
PC34  17416.476592  21198.611724  -5159.471663   -801.064714
PC35 -15520.152325   6621.721032 -22220.561749   -543.741943
PC36 -15772.632481  -3624.852505  22760.583628   -825.288840
PC37   6864.786272 -27061.258308    100.846015   -871.552464
PC38  -9008.679911  39580.123166 -11098.251974    114.075172
PC39  -2492.422999  25537.276190  33472.406424     25.568517
PC40 -19126.808526  26872.555347 -26325.605544 999999.999999
PC43  23096.178842  10536.078899  11608.905622   -477.438256
PC44   1174.280415  19859.439618 -19582.483716    -98.783445
PC45 -15820.555076  16612.311534  15880.055180    291.498857
PC46  -6507.300239 -21534.533436  16547.895569 999999.999999
PE01  20941.836430 -20566.587679  -3854.227785   -989.906003
PE02 -20898.763682  20608.239128   3766.258532    178.931421
PE03 -20456.523652   9934.761228  18944.483369   -368.837527
PE04    -92.882494 -17325.688047 -24003.451453   -654.818867
PE05 -29281.644359  -3382.583213   2706.910052   -326.587444
PE07  20945.060033  14605.226845  14961.723587   -466.314974
PE08    537.607103  17213.928961  24065.857874   6086.632359
PE09 -21164.860827 -14350.542798 -14926.181917   5853.936463
PE11 -14964.391344 -23963.931964  -8823.021082   6761.747306
PE12  -2713.762851 -27510.503713  10577.361969   5489.229322
PE13  14888.452792  24119.158671   8531.145742    407.119444
PE14 -28030.245940  -1979.636000 -13310.346019  -1237.340436
PE15   2939.818103  27517.291449 -10484.846418    842.161710
PE18  23434.816058  10056.506505   2536.735286  -1351.793808
PE19  22235.459120  -8496.125050 -17601.992732    136.933801
PE21  21584.080175  -5133.429617 -19593.084774   -633.796409
PE24  -9228.842820 -14296.155329  24217.695963   -601.344323
PE25 -21530.421615   4951.322107  19708.193802   -520.926128
PE26  18103.142820   5900.003609  22667.735889   2456.628383
PE27   9724.581990  13755.309612 -24328.742703     85.675331
PE30  -8426.769122  24548.472697 -14217.441913   3396.434309
PE31   7773.338710 -24462.895971  14759.590021   -475.974304
PE33  10736.873019 -14729.743202  23331.958678   -463.607387
PE36 -18071.237949  -6570.984888 -22496.953977    476.415597
PG01  13748.782462  -6412.644977  21521.469656    803.820718
PG02 -13832.814034 -16251.899884 -15165.194643   -546.723485
PG03  22821.895379 -12346.527750   5343.490688    -12.917030
PG04  21288.836343  -2141.346369 -15762.232148   -158.520453
PG05 -17294.380058  -4266.128097 -19911.870989    -26.743346
PG06  -5702.610359 -25582.519998  -4106.041735     -2.277798
PG07   7066.317832 -21560.307104 -13070.352354   -421.173224
PG08  25106.656711   4503.413361   7917.680277     -0.600415
PG09  11091.976255 -11703.452715 -21171.745878   -293.707614
PG10  -4597.254769  18936.500327  18018.956331     -0.878009
PG11  18495.816392   2127.835909  18359.147585    -99.200846
PG12 -23644.179190   8906.424791   7693.788858     35.705500
PG13 -23003.711206 -13392.897301    423.116478     68.372678
PG14   8033.281404 -19268.543342  16416.731502     42.535735
PG15 -25366.021819  -1540.888630   7986.155603   -187.678245
PG16  17133.899070   5339.627839 -19951.499782   -241.256816
PG17  -7289.974234 -17733.891599  18823.335265    358.501781
PG18  -6150.783361  22905.699747 -11907.802207    325.491656
PG19 -13862.343211 -18101.207284  13405.605230    -73.806368
PG20 -13617.953059  21301.202315   7617.751158    525.882837
PG21  16139.153125   2897.864072  21692.067188     71.552351
PG22  22102.526794  -6708.013115  13169.539002   -725.046645
PG23 -14166.967860  20028.479023  10110.719744    104.088726
PG24 -15464.005806   2385.758951  21239.288312      5.966159
PG25 -19265.856380  17694.503634  -3903.314110     28.152376
PG26   7146.182058  14094.233024 -21362.764369      4.353213
PG27  23225.545673  12782.238361  -3718.593720    -21.066193
PG28   4592.825176 -18198.112888  19440.247804    651.281510
PG29 -13412.550891   8869.205558 -21185.430809   -243.314874
PG30    855.579031 -26088.087931  -4194.908563   -341.460177
PG31   6892.000998  24528.100714  -6650.849234    -83.588041
PG32   8338.619311  17539.651444  18274.524097      3.284862
PJ01 -31446.955493  24441.486583  18880.068655   -335.636928
PJ02 -32653.929987  26061.339229  10856.813788     -0.063090
PJ03 -23120.303611  18596.075183 -25342.888040     -3.509983
PR01  15831.656945 -10168.692445 -17224.860903     71.104581
PR02  -6773.916905 -10043.394769 -22407.097891    455.867368
PR03 -22049.849317  -3766.575709 -12174.112915     26.179274
PR04 -24629.181800   4555.593498   4822.077097     62.953905
PR05 -13406.342298  10228.035148  19130.871272     61.747499
PR07  22428.393161   3526.090491  11702.940772    -41.509300
PR08  24660.053360  -4531.274227  -4710.444764    -55.880517
PR09   -736.506699  20275.926325 -15484.970956      9.570925
PR12  10988.858161 -23010.080008  -1034.424101    182.990499
PR13   1018.395158 -20357.221426  15325.178056    -47.102596
PR14  -9676.026732  -5430.988139  22982.211974     58.085894
PR15 -14529.112710  12203.120282  17069.089716    106.589495
PR16 -10122.734815  23336.871190    227.911465     -8.538565
PR17 -16967.525058 -16225.487141 -10018.272249    376.895139
PR18 -13294.478691  -2080.382307 -21640.477640     57.408024
PR19  -3401.217627  12545.214030 -21940.525672   -121.126308
PR20  10232.286739  21978.445258  -7976.590093   -427.388487
PR21  16923.809437  15523.185107  11072.620354   -168.589304
PR22  12761.466322   1151.143192  22064.429220    -83.605054
PR23  -2384.218317 -17757.801811  18156.587515 999999.999999
PR24 -10728.577259 -21991.431886   7266.999912     21.758252
PR25  11843.143071   -578.529385 -22569.280176     -1.675724
EOF
